{"fetched_at":"2026-07-18T17:29:36.480Z","source":"https://celestrak.org/NORAD/elements/gp.php?GROUP=spire&FORMAT=JSON","constellation":"spire","records":[{"OBJECT_NAME":"LEMUR-2-VALHALLA","OBJECT_ID":"2024-022B","EPOCH":"2026-07-18T03:09:16.653600","CLASSIFICATION_TYPE":"U","MEAN_MOTION":15.40542637,"ECCENTRICITY":0.00088977,"INCLINATION":97.4076,"RA_OF_ASC_NODE":49.5102,"ARG_OF_PERICENTER":14.1881,"MEAN_ANOMALY":345.9614,"EPHEMERIS_TYPE":0,"NORAD_CAT_ID":58900,"ELEMENT_SET_NO":999,"REV_AT_EPOCH":13703,"BSTAR":0.00021936087,"MEAN_MOTION_DOT":0.00008835,"MEAN_MOTION_DDOT":0},{"OBJECT_NAME":"LEMUR-2-CAEL","OBJECT_ID":"2024-022E","EPOCH":"2026-07-18T02:44:47.634144","CLASSIFICATION_TYPE":"U","MEAN_MOTION":15.41915567,"ECCENTRICITY":0.00067853,"INCLINATION":97.4058,"RA_OF_ASC_NODE":50.4848,"ARG_OF_PERICENTER":358.7316,"MEAN_ANOMALY":1.3912,"EPHEMERIS_TYPE":0,"NORAD_CAT_ID":58903,"ELEMENT_SET_NO":999,"REV_AT_EPOCH":13710,"BSTAR":0.00023069587,"MEAN_MOTION_DOT":0.00009726,"MEAN_MOTION_DDOT":0},{"OBJECT_NAME":"LEMUR-2-JOHNNYTRUONG","OBJECT_ID":"2024-043BA","EPOCH":"2026-07-17T23:18:55.163520","CLASSIFICATION_TYPE":"U","MEAN_MOTION":15.6271215,"ECCENTRICITY":0.00039489,"INCLINATION":97.5402,"RA_OF_ASC_NODE":352.6392,"ARG_OF_PERICENTER":86.3839,"MEAN_ANOMALY":273.787,"EPHEMERIS_TYPE":0,"NORAD_CAT_ID":59146,"ELEMENT_SET_NO":999,"REV_AT_EPOCH":13284,"BSTAR":0.00030707175,"MEAN_MOTION_DOT":0.00027464,"MEAN_MOTION_DDOT":0},{"OBJECT_NAME":"LEMUR-2-TOMATOKECHUP","OBJECT_ID":"2024-149D","EPOCH":"2026-07-18T04:12:15.990912","CLASSIFICATION_TYPE":"U","MEAN_MOTION":15.36619049,"ECCENTRICITY":0.0003402,"INCLINATION":97.379,"RA_OF_ASC_NODE":281.3129,"ARG_OF_PERICENTER":116.695,"MEAN_ANOMALY":243.4643,"EPHEMERIS_TYPE":0,"NORAD_CAT_ID":60471,"ELEMENT_SET_NO":999,"REV_AT_EPOCH":10692,"BSTAR":0.00016424172,"MEAN_MOTION_DOT":0.0000579,"MEAN_MOTION_DDOT":0},{"OBJECT_NAME":"LEMUR-2-STELLA","OBJECT_ID":"2024-149BT","EPOCH":"2026-07-18T04:24:03.188736","CLASSIFICATION_TYPE":"U","MEAN_MOTION":15.12405631,"ECCENTRICITY":0.00012337,"INCLINATION":97.673,"RA_OF_ASC_NODE":281.7865,"ARG_OF_PERICENTER":123.5601,"MEAN_ANOMALY":236.5747,"EPHEMERIS_TYPE":0,"NORAD_CAT_ID":60533,"ELEMENT_SET_NO":999,"REV_AT_EPOCH":10518,"BSTAR":0.00035130774,"MEAN_MOTION_DOT":0.00006034,"MEAN_MOTION_DDOT":0},{"OBJECT_NAME":"LEMUR-2-MARHISYAM","OBJECT_ID":"2024-149BW","EPOCH":"2026-07-18T04:12:39.267936","CLASSIFICATION_TYPE":"U","MEAN_MOTION":15.11810361,"ECCENTRICITY":0.00022992,"INCLINATION":97.6873,"RA_OF_ASC_NODE":282.2583,"ARG_OF_PERICENTER":64.5787,"MEAN_ANOMALY":295.5681,"EPHEMERIS_TYPE":0,"NORAD_CAT_ID":60536,"ELEMENT_SET_NO":999,"REV_AT_EPOCH":10516,"BSTAR":0.00032203811,"MEAN_MOTION_DOT":0.00005434,"MEAN_MOTION_DDOT":0},{"OBJECT_NAME":"LEMUR-2-AHMED-ASRAR","OBJECT_ID":"2024-149DN","EPOCH":"2026-07-18T04:17:41.196192","CLASSIFICATION_TYPE":"U","MEAN_MOTION":15.13344566,"ECCENTRICITY":0.00014726,"INCLINATION":97.7001,"RA_OF_ASC_NODE":284.4767,"ARG_OF_PERICENTER":192.2142,"MEAN_ANOMALY":167.9053,"EPHEMERIS_TYPE":0,"NORAD_CAT_ID":60576,"ELEMENT_SET_NO":999,"REV_AT_EPOCH":10525,"BSTAR":0.00035425104,"MEAN_MOTION_DOT":0.00006248,"MEAN_MOTION_DDOT":0},{"OBJECT_NAME":"LEMUR-2-LLOYD","OBJECT_ID":"2024-149DP","EPOCH":"2026-07-18T04:44:13.091136","CLASSIFICATION_TYPE":"U","MEAN_MOTION":15.09779519,"ECCENTRICITY":0.00044686,"INCLINATION":97.6736,"RA_OF_ASC_NODE":280.3538,"ARG_OF_PERICENTER":64.5877,"MEAN_ANOMALY":295.5814,"EPHEMERIS_TYPE":0,"NORAD_CAT_ID":60577,"ELEMENT_SET_NO":999,"REV_AT_EPOCH":10507,"BSTAR":0.0002695226,"MEAN_MOTION_DOT":0.00004288,"MEAN_MOTION_DDOT":0},{"OBJECT_NAME":"LEMUR-2-SQUIRRELCOMM","OBJECT_ID":"2024-149DQ","EPOCH":"2026-07-18T04:34:26.484384","CLASSIFICATION_TYPE":"U","MEAN_MOTION":15.0746154,"ECCENTRICITY":0.00040248,"INCLINATION":97.6701,"RA_OF_ASC_NODE":280.0096,"ARG_OF_PERICENTER":313.005,"MEAN_ANOMALY":47.084,"EPHEMERIS_TYPE":0,"NORAD_CAT_ID":60578,"ELEMENT_SET_NO":999,"REV_AT_EPOCH":10507,"BSTAR":0.00017513663,"MEAN_MOTION_DOT":0.00002592,"MEAN_MOTION_DDOT":0},{"OBJECT_NAME":"LEMUR-2-SIERRINI","OBJECT_ID":"2024-149DR","EPOCH":"2026-07-18T03:19:40.547136","CLASSIFICATION_TYPE":"U","MEAN_MOTION":15.11545513,"ECCENTRICITY":0.00063219,"INCLINATION":97.6832,"RA_OF_ASC_NODE":281.8796,"ARG_OF_PERICENTER":83.4649,"MEAN_ANOMALY":276.73,"EPHEMERIS_TYPE":0,"NORAD_CAT_ID":60579,"ELEMENT_SET_NO":999,"REV_AT_EPOCH":10513,"BSTAR":0.00029269489,"MEAN_MOTION_DOT":0.00004898,"MEAN_MOTION_DDOT":0},{"OBJECT_NAME":"LEMUR-2-WILSON","OBJECT_ID":"2025-009CP","EPOCH":"2026-07-18T03:30:37.435968","CLASSIFICATION_TYPE":"U","MEAN_MOTION":14.95281701,"ECCENTRICITY":0.00017865,"INCLINATION":97.7017,"RA_OF_ASC_NODE":277.0682,"ARG_OF_PERICENTER":307.3709,"MEAN_ANOMALY":52.7349,"EPHEMERIS_TYPE":0,"NORAD_CAT_ID":62694,"ELEMENT_SET_NO":999,"REV_AT_EPOCH":8198,"BSTAR":0.000089691958,"MEAN_MOTION_DOT":0.00000931,"MEAN_MOTION_DDOT":0},{"OBJECT_NAME":"LEMUR-2-STAR-FOX","OBJECT_ID":"2025-009CR","EPOCH":"2026-07-18T04:33:02.868192","CLASSIFICATION_TYPE":"U","MEAN_MOTION":15.02862528,"ECCENTRICITY":0.00018846,"INCLINATION":97.69,"RA_OF_ASC_NODE":280.5755,"ARG_OF_PERICENTER":30.722,"MEAN_ANOMALY":329.4115,"EPHEMERIS_TYPE":0,"NORAD_CAT_ID":62696,"ELEMENT_SET_NO":999,"REV_AT_EPOCH":8221,"BSTAR":0.0002750332,"MEAN_MOTION_DOT":0.00003626,"MEAN_MOTION_DDOT":0},{"OBJECT_NAME":"LEMUR-2-ARIANNA","OBJECT_ID":"2025-009CU","EPOCH":"2026-07-18T04:30:50.017824","CLASSIFICATION_TYPE":"U","MEAN_MOTION":15.02865359,"ECCENTRICITY":0.00021967,"INCLINATION":97.6842,"RA_OF_ASC_NODE":280.3241,"ARG_OF_PERICENTER":39.3641,"MEAN_ANOMALY":320.7744,"EPHEMERIS_TYPE":0,"NORAD_CAT_ID":62699,"ELEMENT_SET_NO":999,"REV_AT_EPOCH":8221,"BSTAR":0.00028793444,"MEAN_MOTION_DOT":0.000038,"MEAN_MOTION_DDOT":0},{"OBJECT_NAME":"LEMUR-2-ALISIA","OBJECT_ID":"2025-009DB","EPOCH":"2026-07-18T00:38:22.650720","CLASSIFICATION_TYPE":"U","MEAN_MOTION":15.03199026,"ECCENTRICITY":0.00046485,"INCLINATION":97.6965,"RA_OF_ASC_NODE":280.9946,"ARG_OF_PERICENTER":121.1027,"MEAN_ANOMALY":239.0655,"EPHEMERIS_TYPE":0,"NORAD_CAT_ID":62706,"ELEMENT_SET_NO":999,"REV_AT_EPOCH":10479,"BSTAR":0.0003037975,"MEAN_MOTION_DOT":0.00004049,"MEAN_MOTION_DDOT":0},{"OBJECT_NAME":"LEMUR-2-ROUNDTRIPPER","OBJECT_ID":"2025-009DG","EPOCH":"2026-07-18T03:54:33.494688","CLASSIFICATION_TYPE":"U","MEAN_MOTION":15.04258268,"ECCENTRICITY":0.00044927,"INCLINATION":97.7246,"RA_OF_ASC_NODE":281.8056,"ARG_OF_PERICENTER":58.5266,"MEAN_ANOMALY":301.6399,"EPHEMERIS_TYPE":0,"NORAD_CAT_ID":62711,"ELEMENT_SET_NO":999,"REV_AT_EPOCH":8228,"BSTAR":0.00030270773,"MEAN_MOTION_DOT":0.0000415,"MEAN_MOTION_DDOT":0},{"OBJECT_NAME":"LEMUR-2-MYNAMEISJEFF","OBJECT_ID":"2025-009DH","EPOCH":"2026-07-18T03:52:24.378528","CLASSIFICATION_TYPE":"U","MEAN_MOTION":15.04249078,"ECCENTRICITY":0.0004306,"INCLINATION":97.7294,"RA_OF_ASC_NODE":282.2039,"ARG_OF_PERICENTER":91.233,"MEAN_ANOMALY":268.9389,"EPHEMERIS_TYPE":0,"NORAD_CAT_ID":62712,"ELEMENT_SET_NO":999,"REV_AT_EPOCH":8228,"BSTAR":0.00029950938,"MEAN_MOTION_DOT":0.00004104,"MEAN_MOTION_DDOT":0}]}
